IRIDIUM 136             
1 42962U 17061H   24285.49988812  .00000323  00000+0  10844-3 0  9995
2 42962  86.3908 281.6873 0002129  92.1382 268.0058 14.34220475366874
